{"type": "FeatureCollection", "features": [ {"type": "Feature", "properties": {"norad_id": 32289, "name": "YAOGAN-3", "group": "resource", "lat": -44.308634679821225, "lon": -161.73118602112896, "alt_km": 605.5935824324806, "timestamp": "2025-12-25T11:37:44.078290+00:00", "meta": {"OBJECT_NAME": "YAOGAN-3", "OBJECT_ID": "2007-055A", "EPOCH": "2025-12-25T04:10:33.751200", "MEAN_MOTION": 14.89917685, "ECCENTRICITY": 0.0001288, "INCLINATION": 97.8354, "RA_OF_ASC_NODE": 25.6863, "ARG_OF_PERICENTER": 86.704, "MEAN_ANOMALY": 273.4325, "EPHEMERIS_TYPE": 0, "CLASSIFICATION_TYPE": "U", "NORAD_CAT_ID": 32289, "ELEMENT_SET_NO": 999, "REV_AT_EPOCH": 97994, "BSTAR": 0.00027118, "MEAN_MOTION_DOT": 2.554e-05, "MEAN_MOTION_DDOT": 0}, "tle": {"line1": "1 32289U 07055A   25359.17400175  .00002554  00000+0  27118-3 0  9997", "line2": "2 32289  97.8354  25.6863 0001288  86.7040 273.4325 14.89917685979948"}}, "geometry": {"type": "Point", "coordinates": [-161.73118602112896, -44.308634679821225]}}, {"type": "Feature", "properties": {"norad_id": 32376, "name": "COSMO-SKYMED 2", "group": "resource", "lat": 30.087379841455004, "lon": 5.219307608542795, "alt_km": 620.6639707008071, "timestamp": "2025-12-25T11:37:44.078301+00:00", "meta": {"OBJECT_NAME": "COSMO-SKYMED 2", "OBJECT_ID": "2007-059A", "EPOCH": "2025-12-25T04:28:32.700576", "MEAN_MOTION": 14.82157555, "ECCENTRICITY": 0.0001309, "INCLINATION": 97.8806, "RA_OF_ASC_NODE": 180.3229, "ARG_OF_PERICENTER": 82.3914, "MEAN_ANOMALY": 277.7448, "EPHEMERIS_TYPE": 0, "CLASSIFICATION_TYPE": "U", "NORAD_CAT_ID": 32376, "ELEMENT_SET_NO": 999, "REV_AT_EPOCH": 97622, "BSTAR": 7.6003e-05, "MEAN_MOTION_DOT": 5.53e-06, "MEAN_MOTION_DDOT": 0}, "tle": {"line1": "1 32376U 07059A   25359.18648959  .00000553  00000+0  76003-4 0  9998", "line2": "2 32376  97.8806 180.3229 0001309  82.3914 277.7448 14.82157555976224"}}, "geometry": {"type": "Point", "coordinates": [5.219307608542795, 30.087379841455004]}}, {"type": "Feature", "properties": {"norad_id": 32382, "name": "RADARSAT-2", "group": "resource", "lat": -48.187977967033596, "lon": 174.17232826751157, "alt_km": 799.2458532131868, "timestamp": "2025-12-25T11:37:44.078311+00:00", "meta": {"OBJECT_NAME": "RADARSAT-2", "OBJECT_ID": "2007-061A", "EPOCH": "2025-12-25T03:50:41.686080", "MEAN_MOTION": 14.29984786, "ECCENTRICITY": 0.0001131, "INCLINATION": 98.5796, "RA_OF_ASC_NODE": 3.5695, "ARG_OF_PERICENTER": 85.6466, "MEAN_ANOMALY": 274.4846, "EPHEMERIS_TYPE": 0, "CLASSIFICATION_TYPE": "U", "NORAD_CAT_ID": 32382, "ELEMENT_SET_NO": 999, "REV_AT_EPOCH": 94108, "BSTAR": 2.3314e-05, "MEAN_MOTION_DOT": 1.6e-07, "MEAN_MOTION_DDOT": 0}, "tle": {"line1": "1 32382U 07061A   25359.16020470  .00000016  00000+0  23314-4 0  9999", "line2": "2 32382  98.5796   3.5695 0001131  85.6466 274.4846 14.29984786941088"}}, "geometry": {"type": "Point", "coordinates": [174.17232826751157, -48.187977967033596]}}, {"type": "Feature", "properties": {"norad_id": 32783, "name": "CARTOSAT-2A", "group": "resource", "lat": 37.333761722637426, "lon": -125.09724690353394, "alt_km": 637.6176696249031, "timestamp": "2025-12-25T11:37:44.078321+00:00", "meta": {"OBJECT_NAME": "CARTOSAT-2A", "OBJECT_ID": "2008-021A", "EPOCH": "2025-12-25T04:29:34.251072", "MEAN_MOTION": 14.78954815, "ECCENTRICITY": 0.0010926, "INCLINATION": 97.7909, "RA_OF_ASC_NODE": 48.6206, "ARG_OF_PERICENTER": 323.1692, "MEAN_ANOMALY": 36.8768, "EPHEMERIS_TYPE": 0, "CLASSIFICATION_TYPE": "U", "NORAD_CAT_ID": 32783, "ELEMENT_SET_NO": 999, "REV_AT_EPOCH": 95308, "BSTAR": 0.00016185, "MEAN_MOTION_DOT": 1.145e-05, "MEAN_MOTION_DDOT": 0}, "tle": {"line1": "1 32783U 08021A   25359.18720198  .00001145  00000+0  16185-3 0  9998", "line2": "2 32783  97.7909  48.6206 0010926 323.1692  36.8768 14.78954815953081"}}, "geometry": {"type": "Point", "coordinates": [-125.09724690353394, 37.333761722637426]}}, {"type": "Feature", "properties": {"norad_id": 33320, "name": "HUANJING 1A (HJ-1A)", "group": "resource", "lat": -31.719853182546455, "lon": 162.48261486004458, "alt_km": 635.17033213789, "timestamp": "2025-12-25T11:37:44.078331+00:00", "meta": {"OBJECT_NAME": "HUANJING 1A (HJ-1A)", "OBJECT_ID": "2008-041A", "EPOCH": "2025-12-25T05:49:08.863680", "MEAN_MOTION": 14.83431218, "ECCENTRICITY": 0.0019234, "INCLINATION": 97.6549, "RA_OF_ASC_NODE": 347.0191, "ARG_OF_PERICENTER": 354.464, "MEAN_ANOMALY": 5.6359, "EPHEMERIS_TYPE": 0, "CLASSIFICATION_TYPE": "U", "NORAD_CAT_ID": 33320, "ELEMENT_SET_NO": 999, "REV_AT_EPOCH": 93261, "BSTAR": 0.00018487, "MEAN_MOTION_DOT": 1.471e-05, "MEAN_MOTION_DDOT": 0}, "tle": {"line1": "1 33320U 08041A   25359.24246370  .00001471  00000+0  18487-3 0  9999", "line2": "2 33320  97.6549 347.0191 0019234 354.4640   5.6359 14.83431218932617"}}, "geometry": {"type": "Point", "coordinates": [162.48261486004458, -31.719853182546455]}}, {"type": "Feature", "properties": {"norad_id": 33321, "name": "HUANJING 1B (HJ-1B)", "group": "resource", "lat": 46.22152509983623, "lon": -17.138446314958472, "alt_km": 590.4509672794893, "timestamp": "2025-12-25T11:37:44.078343+00:00", "meta": {"OBJECT_NAME": "HUANJING 1B (HJ-1B)", "OBJECT_ID": "2008-041B", "EPOCH": "2025-12-25T04:56:32.293248", "MEAN_MOTION": 14.82854123, "ECCENTRICITY": 0.0037706, "INCLINATION": 97.6406, "RA_OF_ASC_NODE": 350.6483, "ARG_OF_PERICENTER": 36.2647, "MEAN_ANOMALY": 324.1112, "EPHEMERIS_TYPE": 0, "CLASSIFICATION_TYPE": "U", "NORAD_CAT_ID": 33321, "ELEMENT_SET_NO": 999, "REV_AT_EPOCH": 93262, "BSTAR": 0.00023256, "MEAN_MOTION_DOT": 1.855e-05, "MEAN_MOTION_DDOT": 0}, "tle": {"line1": "1 33321U 08041B   25359.20592932  .00001855  00000+0  23256-3 0  9990", "line2": "2 33321  97.6406 350.6483 0037706  36.2647 324.1112 14.82854123932620"}}, "geometry": {"type": "Point", "coordinates": [-17.138446314958472, 46.22152509983623]}}, {"type": "Feature", "properties": {"norad_id": 33331, "name": "GEOEYE 1", "group": "resource", "lat": -74.0494531025797, "lon": 100.58809059371123, "alt_km": 684.0426399070793, "timestamp": "2025-12-25T11:37:44.078353+00:00", "meta": {"OBJECT_NAME": "GEOEYE 1", "OBJECT_ID": "2008-042A", "EPOCH": "2025-12-25T02:08:21.698592", "MEAN_MOTION": 14.64716376, "ECCENTRICITY": 0.0003001, "INCLINATION": 98.1237, "RA_OF_ASC_NODE": 70.2135, "ARG_OF_PERICENTER": 231.2616, "MEAN_ANOMALY": 128.8319, "EPHEMERIS_TYPE": 0, "CLASSIFICATION_TYPE": "U", "NORAD_CAT_ID": 33331, "ELEMENT_SET_NO": 999, "REV_AT_EPOCH": 92466, "BSTAR": 0.00012284, "MEAN_MOTION_DOT": 6.06e-06, "MEAN_MOTION_DDOT": 0}, "tle": {"line1": "1 33331U 08042A   25359.08914003  .00000606  00000+0  12284-3 0  9997", "line2": "2 33331  98.1237  70.2135 0003001 231.2616 128.8319 14.64716376924662"}}, "geometry": {"type": "Point", "coordinates": [100.58809059371123, -74.0494531025797]}}, {"type": "Feature", "properties": {"norad_id": 33396, "name": "THEOS", "group": "resource", "lat": -73.74257201651118, "lon": -154.0009779960938, "alt_km": 833.1233483095502, "timestamp": "2025-12-25T11:37:44.078364+00:00", "meta": {"OBJECT_NAME": "THEOS", "OBJECT_ID": "2008-049A", "EPOCH": "2025-12-25T03:39:45.431424", "MEAN_MOTION": 14.20099185, "ECCENTRICITY": 0.0001183, "INCLINATION": 98.5845, "RA_OF_ASC_NODE": 56.875, "ARG_OF_PERICENTER": 93.974, "MEAN_ANOMALY": 266.1572, "EPHEMERIS_TYPE": 0, "CLASSIFICATION_TYPE": "U", "NORAD_CAT_ID": 33396, "ELEMENT_SET_NO": 999, "REV_AT_EPOCH": 89326, "BSTAR": 9.0086e-05, "MEAN_MOTION_DOT": 1.49e-06, "MEAN_MOTION_DDOT": 0}, "tle": {"line1": "1 33396U 08049A   25359.15260916  .00000149  00000+0  90086-4 0  9999", "line2": "2 33396  98.5845  56.8750 0001183  93.9740 266.1572 14.20099185893267"}}, "geometry": {"type": "Point", "coordinates": [-154.0009779960938, -73.74257201651118]}}, {"type": "Feature", "properties": {"norad_id": 33412, "name": "COSMO-SKYMED 3", "group": "resource", "lat": -67.09875133424593, "lon": -130.85889947861472, "alt_km": 568.5651458365182, "timestamp": "2025-12-25T11:37:44.078374+00:00", "meta": {"OBJECT_NAME": "COSMO-SKYMED 3", "OBJECT_ID": "2008-054A", "EPOCH": "2025-12-25T03:57:26.544384", "MEAN_MOTION": 15.05459489, "ECCENTRICITY": 0.0017093, "INCLINATION": 97.845, "RA_OF_ASC_NODE": 209.7668, "ARG_OF_PERICENTER": 131.4151, "MEAN_ANOMALY": 228.8547, "EPHEMERIS_TYPE": 0, "CLASSIFICATION_TYPE": "U", "NORAD_CAT_ID": 33412, "ELEMENT_SET_NO": 999, "REV_AT_EPOCH": 93074, "BSTAR": 0.00026107, "MEAN_MOTION_DOT": 3.697e-05, "MEAN_MOTION_DDOT": 0}, "tle": {"line1": "1 33412U 08054A   25359.16489056  .00003697  00000+0  26107-3 0  9996", "line2": "2 33412  97.8450 209.7668 0017093 131.4151 228.8547 15.05459489930741"}}, "geometry": {"type": "Point", "coordinates": [-130.85889947861472, -67.09875133424593]}}, {"type": "Feature", "properties": {"norad_id": 33446, "name": "YAOGAN-4", "group": "resource", "lat": -46.99863859002597, "lon": -61.95545375329818, "alt_km": 620.0656375026374, "timestamp": "2025-12-25T11:37:44.078385+00:00", "meta": {"OBJECT_NAME": "YAOGAN-4", "OBJECT_ID": "2008-061A", "EPOCH": "2025-12-25T02:07:30.287136", "MEAN_MOTION": 14.82717433, "ECCENTRICITY": 0.0012975, "INCLINATION": 97.9198, "RA_OF_ASC_NODE": 289.0675, "ARG_OF_PERICENTER": 279.4954, "MEAN_ANOMALY": 80.4792, "EPHEMERIS_TYPE": 0, "CLASSIFICATION_TYPE": "U", "NORAD_CAT_ID": 33446, "ELEMENT_SET_NO": 999, "REV_AT_EPOCH": 91986, "BSTAR": 0.00017896, "MEAN_MOTION_DOT": 1.392e-05, "MEAN_MOTION_DDOT": 0}, "tle": {"line1": "1 33446U 08061A   25359.08854499  .00001392  00000+0  17896-3 0  9994", "line2": "2 33446  97.9198 289.0675 0012975 279.4954  80.4792 14.82717433919869"}}, "geometry": {"type": "Point", "coordinates": [-61.95545375329818, -46.99863859002597]}}]}